{
  "type": "FeatureCollection",
  "features": [
    {
      "type": "Feature",
      "geometry": {
        "type": "Point",
        "coordinates": [
          7.445525,
          46.947071
        ]
      },
      "properties": {
        "buildingId": "BLD-2010",
        "name": "Bundeshaus Nord",
        "street": "Kochergasse",
        "houseNumber": "10",
        "postalCode": "3003",
        "city": "Bern",
        "country": "CH",
        "assetKey": {
          "bk": "1086",
          "we": "2010",
          "obj": "AA"
        },
        "egid": "100123456",
        "images": [
          "assets/images/buildings/BLD-2010-nord-nationalbank.jpg",
          "assets/images/buildings/BLD-2010-nordfassade.jpg"
        ]
      }
    },
    {
      "type": "Feature",
      "geometry": {
        "type": "Point",
        "coordinates": [
          7.480078,
          46.973789
        ]
      },
      "properties": {
        "buildingId": "BLD-2011",
        "name": "BAFU Hauptsitz Worblentalstrasse",
        "street": "Worblentalstrasse",
        "houseNumber": "68",
        "postalCode": "3063",
        "city": "Ittigen",
        "country": "CH",
        "assetKey": {
          "bk": "1086",
          "we": "2011",
          "obj": "AA"
        },
        "egid": "100234567",
        "images": [
          "assets/images/buildings/BLD-2011-nordosten.jpg",
          "assets/images/buildings/BLD-2011-nordwesten.jpg",
          "assets/images/buildings/BLD-2011-skulpturen.jpg"
        ]
      }
    },
    {
      "type": "Feature",
      "geometry": {
        "type": "Point",
        "coordinates": [
          7.478989,
          46.973946
        ]
      },
      "properties": {
        "buildingId": "BLD-2012",
        "name": "ARE Hauptsitz",
        "street": "Worblentalstrasse",
        "houseNumber": "66",
        "postalCode": "3063",
        "city": "Ittigen",
        "country": "CH",
        "assetKey": {
          "bk": "1086",
          "we": "2012",
          "obj": "AA"
        },
        "egid": "100345678",
        "images": [
          "assets/images/buildings/BLD-2012-westen.jpg"
        ]
      }
    },
    {
      "type": "Feature",
      "geometry": {
        "type": "Point",
        "coordinates": [
          7.473168,
          46.976067
        ]
      },
      "properties": {
        "buildingId": "BLD-2013",
        "name": "BAV Hauptsitz",
        "street": "Mühlestrasse",
        "houseNumber": "6",
        "postalCode": "3063",
        "city": "Ittigen",
        "country": "CH",
        "assetKey": {
          "bk": "1086",
          "we": "2013",
          "obj": "AA"
        },
        "egid": "100456789",
        "images": [
          "assets/images/buildings/BLD-2013-westen.jpg"
        ]
      }
    },
    {
      "type": "Feature",
      "geometry": {
        "type": "Point",
        "coordinates": [
          7.474186,
          46.975094
        ]
      },
      "properties": {
        "buildingId": "BLD-2014",
        "name": "BAZL Hauptsitz",
        "street": "Mühlestrasse",
        "houseNumber": "2",
        "postalCode": "3063",
        "city": "Ittigen",
        "country": "CH",
        "assetKey": {
          "bk": "1086",
          "we": "2014",
          "obj": "AA"
        },
        "egid": "100567890",
        "images": [
          "assets/images/buildings/BLD-2014-nordwesten.jpg",
          "assets/images/buildings/BLD-2014-suedosten.jpg",
          "assets/images/buildings/BLD-2014-sueden.jpg"
        ]
      }
    },
    {
      "type": "Feature",
      "geometry": {
        "type": "Point",
        "coordinates": [
          7.471904,
          46.97644
        ]
      },
      "properties": {
        "buildingId": "BLD-2015",
        "name": "BFE Hauptsitz",
        "street": "Pulverstrasse",
        "houseNumber": "13",
        "postalCode": "3063",
        "city": "Ittigen",
        "country": "CH",
        "assetKey": {
          "bk": "1086",
          "we": "2015",
          "obj": "AA"
        },
        "egid": "100678901",
        "images": [
          "assets/images/buildings/BLD-2015-suedosten.jpg",
          "assets/images/buildings/BLD-2015-suedosten-uvek.jpg"
        ]
      }
    },
    {
      "type": "Feature",
      "geometry": {
        "type": "Point",
        "coordinates": [
          7.953462,
          47.29208
        ]
      },
      "properties": {
        "buildingId": "BLD-2016",
        "name": "ASTRA Filiale Zofingen",
        "street": "Brünnliackerstrasse",
        "houseNumber": "45",
        "postalCode": "4800",
        "city": "Zofingen",
        "country": "CH",
        "assetKey": {
          "bk": "1086",
          "we": "2016",
          "obj": "AA"
        },
        "egid": "100789012",
        "images": [
          "assets/images/buildings/BLD-2016-filiale.jpg"
        ]
      }
    },
    {
      "type": "Feature",
      "geometry": {
        "type": "Point",
        "coordinates": [
          7.247909,
          47.132824
        ]
      },
      "properties": {
        "buildingId": "BLD-2017",
        "name": "BAKOM Hauptsitz",
        "street": "Zukunftstrasse",
        "houseNumber": "44",
        "postalCode": "2503",
        "city": "Biel/Bienne",
        "country": "CH",
        "assetKey": {
          "bk": "1086",
          "we": "2017",
          "obj": "AA"
        },
        "egid": "100890123",
        "images": [
          "assets/images/buildings/BLD-2017-hauptsitz.jpg",
          "assets/images/buildings/BLD-2017-eingang.jpg",
          "assets/images/buildings/BLD-2017-seitenansicht.jpg",
          "assets/images/buildings/BLD-2017-umgebung.jpg"
        ]
      }
    },
    {
      "type": "Feature",
      "geometry": {
        "type": "Point",
        "coordinates": [
          8.540425,
          47.462534
        ]
      },
      "properties": {
        "buildingId": "BLD-2018",
        "name": "MeteoSchweiz Flughafen Zürich",
        "street": "Operation Center",
        "houseNumber": "1",
        "postalCode": "8058",
        "city": "Zürich-Flughafen",
        "country": "CH",
        "assetKey": {
          "bk": "1086",
          "we": "2018",
          "obj": "AA"
        },
        "egid": "100901234",
        "images": [
          "assets/images/buildings/BLD-2018-operation-center.jpg"
        ]
      }
    },
    {
      "type": "Feature",
      "geometry": {
        "type": "Point",
        "coordinates": [
          8.787636,
          46.172569
        ]
      },
      "properties": {
        "buildingId": "BLD-2019",
        "name": "MeteoSchweiz Locarno-Monti",
        "street": "Via ai Monti della Trinità",
        "houseNumber": "146",
        "postalCode": "6605",
        "city": "Locarno-Monti",
        "country": "CH",
        "assetKey": {
          "bk": "1086",
          "we": "2019",
          "obj": "AA"
        },
        "egid": "101012345",
        "images": [
          "assets/images/buildings/BLD-2019-centro-sud.jpg"
        ]
      }
    }
  ]
}
